start=new Date('2022-06-04T00:00:00.000Z').valueOf();
sats=[{"PERIOD":"95.592","ELEMENT_SET_NO":"999","COUNTRY_CODE":"US","INCLINATION":"53.0548","MEAN_ANOMALY":"291.0755","FILE":"3479192","TLE_LINE1":"1 46548U 20070S   22154.39346447 -.00000894  00000-0 -41118-4 0  9992","MEAN_ELEMENT_THEORY":"SGP4","REV_AT_EPOCH":"9221","GP_ID":"205262675","OBJECT_TYPE":"PAYLOAD","CLASSIFICATION_TYPE":"U","CENTER_NAME":"EARTH","TIME_SYSTEM":"UTC","ARG_OF_PERICENTER":"69.0404","EPOCH":"2022-06-03T09:26:35.330208","DECAY_DATE":null,"APOAPSIS":"548.318","SITE":"AFETR","BSTAR":"-0.00004111800000","EPHEMERIS_TYPE":"0","ECCENTRICITY":"0.00015950","OBJECT_NAME":"STARLINK-1699","REF_FRAME":"TEME","LAUNCH_DATE":"2020-10-06","RCS_SIZE":"LARGE","NORAD_CAT_ID":"46548","SEMIMAJOR_AXIS":"6925.348","MEAN_MOTION_DOT":"-0.00000894","MEAN_MOTION":"15.06400065","OBJECT_ID":"2020-070S","PERIAPSIS":"546.109","TLE_LINE2":"2 46548  53.0548 230.5667 0001595  69.0404 291.0755 15.06400065 92216","MEAN_MOTION_DDOT":"0.0000000000000","RA_OF_ASC_NODE":"230.5667"},{"OBJECT_ID":"2020-070T","PERIAPSIS":"546.081","MEAN_MOTION_DDOT":"0.0000000000000","TLE_LINE2":"2 46549  53.0555 229.2387 0001612  70.7465 289.3698 15.06405357 92254","RA_OF_ASC_NODE":"229.2387","MEAN_MOTION_DOT":"-0.00000049","SEMIMAJOR_AXIS":"6925.332","MEAN_MOTION":"15.06405357","NORAD_CAT_ID":"46549","REF_FRAME":"TEME","LAUNCH_DATE":"2020-10-06","RCS_SIZE":"LARGE","TIME_SYSTEM":"UTC","EPOCH":"2022-06-03T16:31:11.798400","ARG_OF_PERICENTER":"70.7465","DECAY_DATE":null,"APOAPSIS":"548.314","SITE":"AFETR","BSTAR":"0.00001563800000","EPHEMERIS_TYPE":"0","ECCENTRICITY":"0.00016120","OBJECT_NAME":"STARLINK-1700","GP_ID":"205297479","OBJECT_TYPE":"PAYLOAD","CLASSIFICATION_TYPE":"U","CENTER_NAME":"EARTH","FILE":"3479630","TLE_LINE1":"1 46549U 20070T   22154.68833100 -.00000049  00000-0  15638-4 0  9991","MEAN_ELEMENT_THEORY":"SGP4","REV_AT_EPOCH":"9225","PERIOD":"95.592","ELEMENT_SET_NO":"999","COUNTRY_CODE":"US","INCLINATION":"53.0555","MEAN_ANOMALY":"289.3698"},{"REV_AT_EPOCH":"9221","TLE_LINE1":"1 46550U 20070U   22154.40821317  .00000824  00000-0  74225-4 0  9997","FILE":"3479192","MEAN_ELEMENT_THEORY":"SGP4","COUNTRY_CODE":"US","INCLINATION":"53.0539","MEAN_ANOMALY":"318.1465","PERIOD":"95.592","ELEMENT_SET_NO":"999","DECAY_DATE":null,"BSTAR":"0.00007422500000","SITE":"AFETR","APOAPSIS":"548.481","ECCENTRICITY":"0.00018150","EPHEMERIS_TYPE":"0","OBJECT_NAME":"STARLINK-1701","TIME_SYSTEM":"UTC","EPOCH":"2022-06-03T09:47:49.617888","ARG_OF_PERICENTER":"41.9663","GP_ID":"205263674","OBJECT_TYPE":"PAYLOAD","CLASSIFICATION_TYPE":"U","CENTER_NAME":"EARTH","NORAD_CAT_ID":"46550","LAUNCH_DATE":"2020-10-06","RCS_SIZE":"LARGE","REF_FRAME":"TEME","TLE_LINE2":"2 46550  53.0539 230.5050 0001815  41.9663 318.1465 15.06396559 92217","MEAN_MOTION_DDOT":"0.0000000000000","RA_OF_ASC_NODE":"230.5050","OBJECT_ID":"2020-070U","PERIAPSIS":"545.967","MEAN_MOTION_DOT":"0.00000824","SEMIMAJOR_AXIS":"6925.359","MEAN_MOTION":"15.06396559"},{"EPOCH":"2022-06-03T11:59:51.334944","ARG_OF_PERICENTER":"59.7207","TIME_SYSTEM":"UTC","EPHEMERIS_TYPE":"0","ECCENTRICITY":"0.00013990","OBJECT_NAME":"STARLINK-1649","SITE":"AFETR","DECAY_DATE":null,"APOAPSIS":"548.174","BSTAR":"0.00005192300000","CENTER_NAME":"EARTH","OBJECT_TYPE":"PAYLOAD","GP_ID":"205262666","CLASSIFICATION_TYPE":"U","MEAN_ELEMENT_THEORY":"SGP4","TLE_LINE1":"1 46552U 20070W   22154.49989971  .00000492  00000-0  51923-4 0  9990","FILE":"3479192","REV_AT_EPOCH":"9244","PERIOD":"95.592","ELEMENT_SET_NO":"999","INCLINATION":"53.0527","MEAN_ANOMALY":"300.3920","COUNTRY_CODE":"US","PERIAPSIS":"546.237","OBJECT_ID":"2020-070W","RA_OF_ASC_NODE":"215.0741","TLE_LINE2":"2 46552  53.0527 215.0741 0001399  59.7207 300.3920 15.06402590 92446","MEAN_MOTION_DDOT":"0.0000000000000","SEMIMAJOR_AXIS":"6925.341","MEAN_MOTION_DOT":"0.00000492","MEAN_MOTION":"15.06402590","NORAD_CAT_ID":"46552","REF_FRAME":"TEME","RCS_SIZE":"LARGE","LAUNCH_DATE":"2020-10-06"},{"NORAD_CAT_ID":"46553","LAUNCH_DATE":"2020-10-06","RCS_SIZE":"LARGE","REF_FRAME":"TEME","TLE_LINE2":"2 46553  53.0547 198.4779 0001683  67.7916 292.3251 15.06403013 92703","MEAN_MOTION_DDOT":"0.0000000000000","RA_OF_ASC_NODE":"198.4779","OBJECT_ID":"2020-070X","PERIAPSIS":"546.039","MEAN_MOTION_DOT":"0.00001186","SEMIMAJOR_AXIS":"6925.339","MEAN_MOTION":"15.06403013","REV_AT_EPOCH":"9270","TLE_LINE1":"1 46553U 20070X   22154.86065803  .00001186  00000-0  98511-4 0  9996","FILE":"3479630","MEAN_ELEMENT_THEORY":"SGP4","COUNTRY_CODE":"US","INCLINATION":"53.0547","MEAN_ANOMALY":"292.3251","PERIOD":"95.592","ELEMENT_SET_NO":"999","DECAY_DATE":null,"APOAPSIS":"548.370","SITE":"AFETR","BSTAR":"0.00009851100000","EPHEMERIS_TYPE":"0","ECCENTRICITY":"0.00016830","OBJECT_NAME":"STARLINK-1664","TIME_SYSTEM":"UTC","ARG_OF_PERICENTER":"67.7916","EPOCH":"2022-06-03T20:39:20.853792","GP_ID":"205297229","OBJECT_TYPE":"PAYLOAD","CLASSIFICATION_TYPE":"U","CENTER_NAME":"EARTH"},{"REV_AT_EPOCH":"9242","MEAN_ELEMENT_THEORY":"SGP4","FILE":"3479192","TLE_LINE1":"1 46554U 20070Y   22154.38194159  .00000209  00000-0  32909-4 0  9995","MEAN_ANOMALY":"278.2727","INCLINATION":"53.0545","COUNTRY_CODE":"US","ELEMENT_SET_NO":"999","PERIOD":"95.592","OBJECT_NAME":"STARLINK-1671","EPHEMERIS_TYPE":"0","ECCENTRICITY":"0.00015030","SITE":"AFETR","DECAY_DATE":null,"BSTAR":"0.00003290900000","APOAPSIS":"548.246","EPOCH":"2022-06-03T09:09:59.753376","ARG_OF_PERICENTER":"81.8432","TIME_SYSTEM":"UTC","CENTER_NAME":"EARTH","CLASSIFICATION_TYPE":"U","OBJECT_TYPE":"PAYLOAD","GP_ID":"205262425","NORAD_CAT_ID":"46554","RCS_SIZE":"LARGE","LAUNCH_DATE":"2020-10-06","REF_FRAME":"TEME","RA_OF_ASC_NODE":"215.6067","MEAN_MOTION_DDOT":"0.0000000000000","TLE_LINE2":"2 46554  53.0545 215.6067 0001503  81.8432 278.2727 15.06402650 92421","PERIAPSIS":"546.165","OBJECT_ID":"2020-070Y","SEMIMAJOR_AXIS":"6925.340","MEAN_MOTION":"15.06402650","MEAN_MOTION_DOT":"0.00000209"},{"GP_ID":"205263175","OBJECT_TYPE":"PAYLOAD","CLASSIFICATION_TYPE":"U","CENTER_NAME":"EARTH","TIME_SYSTEM":"UTC","EPOCH":"2022-06-03T10:35:35.610432","ARG_OF_PERICENTER":"60.9559","DECAY_DATE":null,"SITE":"AFETR","BSTAR":"-0.00009227500000","APOAPSIS":"548.293","EPHEMERIS_TYPE":"0","ECCENTRICITY":"0.00015480","OBJECT_NAME":"STARLINK-1676","PERIOD":"95.592","ELEMENT_SET_NO":"999","COUNTRY_CODE":"US","INCLINATION":"53.0534","MEAN_ANOMALY":"299.1585","FILE":"3479192","TLE_LINE1":"1 46556U 20070AA  22154.44138438 -.00001656  00000-0 -92275-4 0  9993","MEAN_ELEMENT_THEORY":"SGP4","REV_AT_EPOCH":"9222","MEAN_MOTION_DOT":"-0.00001656","SEMIMAJOR_AXIS":"6925.356","MEAN_MOTION":"15.06397482","OBJECT_ID":"2020-070AA","PERIAPSIS":"546.149","TLE_LINE2":"2 46556  53.0534 230.3479 0001548  60.9559 299.1585 15.06397482 92227","MEAN_MOTION_DDOT":"0.0000000000000","RA_OF_ASC_NODE":"230.3479","REF_FRAME":"TEME","LAUNCH_DATE":"2020-10-06","RCS_SIZE":"LARGE","NORAD_CAT_ID":"46556"},{"REF_FRAME":"TEME","RCS_SIZE":"LARGE","LAUNCH_DATE":"2020-10-06","NORAD_CAT_ID":"46557","SEMIMAJOR_AXIS":"6925.355","MEAN_MOTION_DOT":"-0.00001749","MEAN_MOTION":"15.06397737","PERIAPSIS":"546.097","OBJECT_ID":"2020-070AB","RA_OF_ASC_NODE":"213.3760","MEAN_MOTION_DDOT":"0.0000000000000","TLE_LINE2":"2 46557  53.0551 213.3760 0001622  69.8403 290.2760 15.06397737 92501","PERIOD":"95.592","ELEMENT_SET_NO":"999","INCLINATION":"53.0551","MEAN_ANOMALY":"290.2760","COUNTRY_CODE":"US","MEAN_ELEMENT_THEORY":"SGP4","TLE_LINE1":"1 46557U 20070AB  22154.88323766 -.00001749  00000-0 -98539-4 0  9994","FILE":"3479630","REV_AT_EPOCH":"9250","CENTER_NAME":"EARTH","OBJECT_TYPE":"PAYLOAD","GP_ID":"205296478","CLASSIFICATION_TYPE":"U","EPOCH":"2022-06-03T21:11:51.733824","ARG_OF_PERICENTER":"69.8403","TIME_SYSTEM":"UTC","EPHEMERIS_TYPE":"0","ECCENTRICITY":"0.00016220","OBJECT_NAME":"STARLINK-1679","DECAY_DATE":null,"SITE":"AFETR","APOAPSIS":"548.344","BSTAR":"-0.00009853900000"},{"GP_ID":"205297729","OBJECT_TYPE":"PAYLOAD","CLASSIFICATION_TYPE":"U","CENTER_NAME":"EARTH","TIME_SYSTEM":"UTC","ARG_OF_PERICENTER":"61.6576","EPOCH":"2022-06-03T21:22:27.819264","SITE":"AFETR","DECAY_DATE":null,"BSTAR":"0.00004597300000","APOAPSIS":"548.188","ECCENTRICITY":"0.00014370","EPHEMERIS_TYPE":"0","OBJECT_NAME":"STARLINK-1680","PERIOD":"95.592","ELEMENT_SET_NO":"999","COUNTRY_CODE":"US","INCLINATION":"53.0534","MEAN_ANOMALY":"298.4558","FILE":"3479630","TLE_LINE1":"1 46558U 20070AC  22154.89059976  .00000403  00000-0  45973-4 0  9993","MEAN_ELEMENT_THEORY":"SGP4","REV_AT_EPOCH":"9247","MEAN_MOTION_DOT":"0.00000403","SEMIMAJOR_AXIS":"6925.327","MEAN_MOTION":"15.06406886","OBJECT_ID":"2020-070AC","PERIAPSIS":"546.197","MEAN_MOTION_DDOT":"0.0000000000000","TLE_LINE2":"2 46558  53.0534 213.3186 0001437  61.6576 298.4558 15.06406886 92477","RA_OF_ASC_NODE":"213.3186","REF_FRAME":"TEME","LAUNCH_DATE":"2020-10-06","RCS_SIZE":"LARGE","NORAD_CAT_ID":"46558"},{"LAUNCH_DATE":"2020-10-06","RCS_SIZE":"LARGE","REF_FRAME":"TEME","NORAD_CAT_ID":"46559","MEAN_MOTION_DOT":"-0.00000546","SEMIMAJOR_AXIS":"6925.348","MEAN_MOTION":"15.06400281","MEAN_MOTION_DDOT":"0.0000000000000","TLE_LINE2":"2 46559  53.0543 200.1710 0001678  65.7802 294.3363 15.06400281 92640","RA_OF_ASC_NODE":"200.1710","OBJECT_ID":"2020-070AD","PERIAPSIS":"546.051","COUNTRY_CODE":"US","MEAN_ANOMALY":"294.3363","INCLINATION":"53.0543","ELEMENT_SET_NO":"999","PERIOD":"95.592","REV_AT_EPOCH":"9264","FILE":"3479192","TLE_LINE1":"1 46559U 20070AD  22154.48100967 -.00000546  00000-0 -17771-4 0  9991","MEAN_ELEMENT_THEORY":"SGP4","CLASSIFICATION_TYPE":"U","OBJECT_TYPE":"PAYLOAD","GP_ID":"205262926","CENTER_NAME":"EARTH","APOAPSIS":"548.375","DECAY_DATE":null,"SITE":"AFETR","BSTAR":"-0.00001777100000","OBJECT_NAME":"STARLINK-1681","EPHEMERIS_TYPE":"0","ECCENTRICITY":"0.00016780","TIME_SYSTEM":"UTC","EPOCH":"2022-06-03T11:32:39.235488","ARG_OF_PERICENTER":"65.7802"}];
